38040,GLOBALSTAR M084,2011,114.08,700.0,+,52.0,Active,1,LEO,Kazakhstan,Globalstar,Commercial,Communications,Soyuz,1 38040U 11080A   24269.38347773 -.00000090  00000+0  76327-4 0  9998,2 38040  51.9991 134.6342 0000715  98.7016  72.2754 12.62267944589505,12.62267944,7.15e-05,LEO
38041,GLOBALSTAR M080,2011,114.08,700.0,+,52.0,Active,1,LEO,Kazakhstan,Globalstar,Commercial,Communications,Soyuz,1 38041U 11080B   24269.35716715 -.00000089  00000+0  80754-4 0  9999,2 38041  52.0045 136.2286 0000989 102.8380  68.3484 12.62266059589486,12.62266059,9.89e-05,LEO
38042,GLOBALSTAR M082,2011,114.08,700.0,+,52.01,Active,1,LEO,Kazakhstan,Globalstar,Commercial,Communications,Soyuz,1 38042U 11080C   24269.29137001 -.00000098  00000+0  34129-4 0  9993,2 38042  52.0062  91.8446 0000764  50.5890 121.5978 12.62267045590215,12.62267045,7.64e-05,LEO
38043,GLOBALSTAR M092,2011,114.08,700.0,+,52.01,Active,1,LEO,Kazakhstan,Globalstar,Commercial,Communications,Soyuz,1 38043U 11080D   24268.67840438 -.00000068  00000+0  19695-3 0  9997,2 38043  52.0078 184.0740 0000479  70.9233 314.6337 12.62266477588427,12.62266477,4.79e-05,LEO
38044,GLOBALSTAR M090,2011,114.08,700.0,+,51.99,Active,1,LEO,Kazakhstan,Globalstar,Commercial,Communications,Soyuz,1 38044U 11080E   24268.80793560 -.00000099  00000+0  25521-4 0  9996,2 38044  51.9872  87.4660 0000800  70.7250 303.6624 12.62268046590109,12.62268046,8e-05,LEO
38045,GLOBALSTAR M086,2011,114.08,700.0,+,51.99,Active,1,LEO,Kazakhstan,Globalstar,Commercial,Communications,Soyuz,1 38045U 11080F   24268.75474417 -.00000091  00000+0  73226-4 0  9995,2 38045  51.9884  88.1579 0001768  90.2404 282.9601 12.62267478590047,12.62267478,0.0001768,LEO
39072,GLOBALSTAR M097,2013,114.08,700.0,+,52.01,Active,1,LEO,Kazakhstan,Globalstar,Commercial,Communications,Soyuz,1 39072U 13005A   24268.69948497 -.00000097  00000+0  38310-4 0  9993,2 39072  52.0075   2.6070 0000789  84.2626 275.8330 12.62270478537281,12.62270478,7.89e-05,LEO
39073,GLOBALSTAR M093,2013,114.08,700.0,+,51.98,Active,1,LEO,Kazakhstan,Globalstar,Commercial,Communications,Soyuz,1 39073U 13005B   24268.98935297 -.00000072  00000+0  17627-3 0  9990,2 39073  51.9840 355.4495 0000729  80.2836 279.8113 12.62264485537399,12.62264485,7.29e-05,LEO
